{"type": "FeatureCollection", "features": [ {"type": "Feature", "properties": {"norad_id": 65943, "name": "E-KAGAKU-1", "group": "stations", "lat": -1.499747185184856, "lon": 158.89082983485872, "alt_km": 394.2505799167502, "timestamp": "2025-12-08T17:43:03.650728+00:00", "meta": {"OBJECT_NAME": "E-KAGAKU-1", "OBJECT_ID": "1998-067XQ", "EPOCH": "2025-12-07T18:38:39.521184", "MEAN_MOTION": 15.58562644, "ECCENTRICITY": 0.00029586, "INCLINATION": 51.6295, "RA_OF_ASC_NODE": 164.9078, "ARG_OF_PERICENTER": 173.7443, "MEAN_ANOMALY": 186.3587, "EPHEMERIS_TYPE": 0, "CLASSIFICATION_TYPE": "U", "NORAD_CAT_ID": 65943, "ELEMENT_SET_NO": 999, "REV_AT_EPOCH": 908, "BSTAR": 0.0011280115, "MEAN_MOTION_DOT": 0.00088516, "MEAN_MOTION_DDOT": 0}, "tle": {"line1": "1 65943U 98067XQ  25341.77684631  .00088516  00000+0  11280-2 0  9995", "line2": "2 65943  51.6295 164.9078 0002958 173.7443 186.3587 15.58562644  9086"}}, "geometry": {"type": "Point", "coordinates": [158.89082983485872, -1.499747185184856]}}, {"type": "Feature", "properties": {"norad_id": 66052, "name": "HRC MONOBLOCK CAMERA", "group": "stations", "lat": 40.58719652355647, "lon": -155.7967979069218, "alt_km": 401.3438129330816, "timestamp": "2025-12-08T17:43:03.650739+00:00", "meta": {"OBJECT_NAME": "HRC MONOBLOCK CAMERA", "OBJECT_ID": "1998-067XR", "EPOCH": "2025-12-08T05:07:40.067616", "MEAN_MOTION": 15.53683472, "ECCENTRICITY": 0.00039412, "INCLINATION": 51.6285, "RA_OF_ASC_NODE": 164.067, "ARG_OF_PERICENTER": 165.5162, "MEAN_ANOMALY": 194.5942, "EPHEMERIS_TYPE": 0, "CLASSIFICATION_TYPE": "U", "NORAD_CAT_ID": 66052, "ELEMENT_SET_NO": 999, "REV_AT_EPOCH": 813, "BSTAR": 0.00058766286, "MEAN_MOTION_DOT": 0.0003799, "MEAN_MOTION_DDOT": 0}, "tle": {"line1": "1 66052U 98067XR  25342.21365819  .00037990  00000+0  58766-3 0  9992", "line2": "2 66052  51.6285 164.0670 0003941 165.5162 194.5942 15.53683472  8135"}}, "geometry": {"type": "Point", "coordinates": [-155.7967979069218, 40.58719652355647]}}, {"type": "Feature", "properties": {"norad_id": 66174, "name": "HTV-X1", "group": "stations", "lat": 10.257096315533067, "lon": 170.5338316946105, "alt_km": 419.7703406980545, "timestamp": "2025-12-08T17:43:03.650749+00:00", "meta": {"OBJECT_NAME": "HTV-X1", "OBJECT_ID": "2025-241A", "EPOCH": "2025-12-08T05:16:39.559584", "MEAN_MOTION": 15.49412336, "ECCENTRICITY": 0.00034318, "INCLINATION": 51.6305, "RA_OF_ASC_NODE": 164.8582, "ARG_OF_PERICENTER": 219.3069, "MEAN_ANOMALY": 140.7671, "EPHEMERIS_TYPE": 0, "CLASSIFICATION_TYPE": "U", "NORAD_CAT_ID": 66174, "ELEMENT_SET_NO": 999, "REV_AT_EPOCH": 51, "BSTAR": 0.00022082399, "MEAN_MOTION_DOT": 0.00011911, "MEAN_MOTION_DDOT": 0}, "tle": {"line1": "1 66174U 25241A   25342.21990231  .00011911  00000+0  22082-3 0  9990", "line2": "2 66174  51.6305 164.8582 0003431 219.3069 140.7671 15.49412336   511"}}, "geometry": {"type": "Point", "coordinates": [170.5338316946105, 10.257096315533067]}}, {"type": "Feature", "properties": {"norad_id": 66515, "name": "SZ-21 MODULE", "group": "stations", "lat": -9.151517596913582, "lon": -129.0423703601692, "alt_km": 379.07466456883776, "timestamp": "2025-12-08T17:43:03.650760+00:00", "meta": {"OBJECT_NAME": "SZ-21 MODULE", "OBJECT_ID": "2025-246C", "EPOCH": "2025-12-08T04:37:01.238016", "MEAN_MOTION": 15.62158409, "ECCENTRICITY": 0.00062352, "INCLINATION": 41.4776, "RA_OF_ASC_NODE": 43.7798, "ARG_OF_PERICENTER": 235.1653, "MEAN_ANOMALY": 124.8601, "EPHEMERIS_TYPE": 0, "CLASSIFICATION_TYPE": "U", "NORAD_CAT_ID": 66515, "ELEMENT_SET_NO": 999, "REV_AT_EPOCH": 373, "BSTAR": 0.00034735196, "MEAN_MOTION_DOT": 0.00031205, "MEAN_MOTION_DDOT": 0}, "tle": {"line1": "1 66515U 25246C   25342.19237544  .00031205  00000+0  34735-3 0  9998", "line2": "2 66515  41.4776  43.7798 0006235 235.1653 124.8601 15.62158409  3739"}}, "geometry": {"type": "Point", "coordinates": [-129.0423703601692, -9.151517596913582]}}, {"type": "Feature", "properties": {"norad_id": 66645, "name": "SHENZHOU-22", "group": "stations", "lat": -17.5308750617283, "lon": 20.03597408106984, "alt_km": 386.77846688677346, "timestamp": "2025-12-08T17:43:03.650771+00:00", "meta": {"OBJECT_NAME": "SHENZHOU-22", "OBJECT_ID": "2025-272A", "EPOCH": "2025-12-08T07:04:12.884448", "MEAN_MOTION": 15.58883062, "ECCENTRICITY": 0.00091533, "INCLINATION": 41.4681, "RA_OF_ASC_NODE": 43.6887, "ARG_OF_PERICENTER": 354.9466, "MEAN_ANOMALY": 5.1278, "EPHEMERIS_TYPE": 0, "CLASSIFICATION_TYPE": "U", "NORAD_CAT_ID": 66645, "ELEMENT_SET_NO": 999, "REV_AT_EPOCH": 26300, "BSTAR": 0.000309658, "MEAN_MOTION_DOT": 0.00024468, "MEAN_MOTION_DDOT": 0}, "tle": {"line1": "1 66645U 25272A   25342.29459357  .00024468  00000+0  30966-3 0  9995", "line2": "2 66645  41.4681  43.6887 0009153 354.9466   5.1278 15.58883062263004"}}, "geometry": {"type": "Point", "coordinates": [20.03597408106984, -17.5308750617283]}}, {"type": "Feature", "properties": {"norad_id": 66664, "name": "SOYUZ-MS 28", "group": "stations", "lat": 10.257098420088369, "lon": 170.5338334321976, "alt_km": 419.7703404379363, "timestamp": "2025-12-08T17:43:03.650791+00:00", "meta": {"OBJECT_NAME": "SOYUZ-MS 28", "OBJECT_ID": "2025-275A", "EPOCH": "2025-12-08T05:16:39.559584", "MEAN_MOTION": 15.49412336, "ECCENTRICITY": 0.00034318, "INCLINATION": 51.6305, "RA_OF_ASC_NODE": 164.8582, "ARG_OF_PERICENTER": 219.3069, "MEAN_ANOMALY": 140.7671, "EPHEMERIS_TYPE": 0, "CLASSIFICATION_TYPE": "U", "NORAD_CAT_ID": 66664, "ELEMENT_SET_NO": 999, "REV_AT_EPOCH": 128, "BSTAR": 0.00022082399, "MEAN_MOTION_DOT": 0.00011911, "MEAN_MOTION_DDOT": 0}, "tle": {"line1": "1 66664U 25275A   25342.21990231  .00011911  00000+0  22082-3 0  9991", "line2": "2 66664  51.6305 164.8582 0003431 219.3069 140.7671 15.49412336  1280"}}, "geometry": {"type": "Point", "coordinates": [170.5338334321976, 10.257098420088369]}}, {"type": "Feature", "properties": {"norad_id": 66906, "name": "1998-067XS", "group": "stations", "lat": 22.558435596306957, "lon": -178.52727419935553, "alt_km": 415.8630517638785, "timestamp": "2025-12-08T17:43:03.650804+00:00", "meta": {"OBJECT_NAME": "1998-067XS", "OBJECT_ID": "1998-067XS", "EPOCH": "2025-12-07T18:23:05.277120", "MEAN_MOTION": 15.50202047, "ECCENTRICITY": 0.00041027, "INCLINATION": 51.6298, "RA_OF_ASC_NODE": 167.0779, "ARG_OF_PERICENTER": 180.8323, "MEAN_ANOMALY": 179.266, "EPHEMERIS_TYPE": 0, "CLASSIFICATION_TYPE": "U", "NORAD_CAT_ID": 66906, "ELEMENT_SET_NO": 999, "REV_AT_EPOCH": 84, "BSTAR": 0.00058960248, "MEAN_MOTION_DOT": 0.00033584, "MEAN_MOTION_DDOT": 0}, "tle": {"line1": "1 66906U 98067XS  25341.76603330  .00033584  00000+0  58960-3 0  9993", "line2": "2 66906  51.6298 167.0779 0004102 180.8323 179.2660 15.50202047   848"}}, "geometry": {"type": "Point", "coordinates": [-178.52727419935553, 22.558435596306957]}}, {"type": "Feature", "properties": {"norad_id": 66907, "name": "1998-067XT", "group": "stations", "lat": 26.537788394763826, "lon": -174.44484853292326, "alt_km": 414.6002275282044, "timestamp": "2025-12-08T17:43:03.650816+00:00", "meta": {"OBJECT_NAME": "1998-067XT", "OBJECT_ID": "1998-067XT", "EPOCH": "2025-12-08T05:11:42.536256", "MEAN_MOTION": 15.50682978, "ECCENTRICITY": 0.00049888, "INCLINATION": 51.63, "RA_OF_ASC_NODE": 164.8361, "ARG_OF_PERICENTER": 200.9093, "MEAN_ANOMALY": 159.1692, "EPHEMERIS_TYPE": 0, "CLASSIFICATION_TYPE": "U", "NORAD_CAT_ID": 66907, "ELEMENT_SET_NO": 999, "REV_AT_EPOCH": 91, "BSTAR": 0.0010938546, "MEAN_MOTION_DOT": 0.00064041, "MEAN_MOTION_DDOT": 0}, "tle": {"line1": "1 66907U 98067XT  25342.21646454  .00064041  00000+0  10939-2 0  9994", "line2": "2 66907  51.6300 164.8361 0004988 200.9093 159.1692 15.50682978   910"}}, "geometry": {"type": "Point", "coordinates": [-174.44484853292326, 26.537788394763826]}}, {"type": "Feature", "properties": {"norad_id": 66908, "name": "1998-067XU", "group": "stations", "lat": 27.265457506599972, "lon": -173.65464558851482, "alt_km": 414.48242391472104, "timestamp": "2025-12-08T17:43:03.650827+00:00", "meta": {"OBJECT_NAME": "1998-067XU", "OBJECT_ID": "1998-067XU", "EPOCH": "2025-12-08T05:11:27.913056", "MEAN_MOTION": 15.50722225, "ECCENTRICITY": 0.00051815, "INCLINATION": 51.6294, "RA_OF_ASC_NODE": 164.835, "ARG_OF_PERICENTER": 200.0126, "MEAN_ANOMALY": 160.0661, "EPHEMERIS_TYPE": 0, "CLASSIFICATION_TYPE": "U", "NORAD_CAT_ID": 66908, "ELEMENT_SET_NO": 999, "REV_AT_EPOCH": 91, "BSTAR": 0.001021887, "MEAN_MOTION_DOT": 0.00059851, "MEAN_MOTION_DDOT": 0}, "tle": {"line1": "1 66908U 98067XU  25342.21629529  .00059851  00000+0  10219-2 0  9993", "line2": "2 66908  51.6294 164.8350 0005181 200.0126 160.0661 15.50722225   912"}}, "geometry": {"type": "Point", "coordinates": [-173.65464558851482, 27.265457506599972]}}, {"type": "Feature", "properties": {"norad_id": 66909, "name": "SILVERSAT", "group": "stations", "lat": 27.77203229460133, "lon": -173.0974306709476, "alt_km": 413.9893997628569, "timestamp": "2025-12-08T17:43:03.650861+00:00", "meta": {"OBJECT_NAME": "SILVERSAT", "OBJECT_ID": "1998-067XV", "EPOCH": "2025-12-07T19:54:33.887232", "MEAN_MOTION": 15.50747382, "ECCENTRICITY": 0.00050921, "INCLINATION": 51.6296, "RA_OF_ASC_NODE": 166.752, "ARG_OF_PERICENTER": 199.8533, "MEAN_ANOMALY": 160.2258, "EPHEMERIS_TYPE": 0, "CLASSIFICATION_TYPE": "U", "NORAD_CAT_ID": 66909, "ELEMENT_SET_NO": 999, "REV_AT_EPOCH": 85, "BSTAR": 0.0014852493, "MEAN_MOTION_DOT": 0.00087585, "MEAN_MOTION_DDOT": 0}, "tle": {"line1": "1 66909U 98067XV  25341.82955888  .00087585  00000+0  14852-2 0  9992", "line2": "2 66909  51.6296 166.7520 0005092 199.8533 160.2258 15.50747382   851"}}, "geometry": {"type": "Point", "coordinates": [-173.0974306709476, 27.77203229460133]}}]}